ONEWEB-0144             
1 47290U 20100AJ  25113.83361976 -.00000383  00000+0 -11003-2 0  9992
2 47290  87.8854  74.0723 0001795  90.6584 269.4750 13.12444498209566
ONEWEB-0146             
1 47292U 20100AL  25113.64870510  .00000467  00000+0  12634-2 0  9994
2 47292  87.8851  74.1216 0002180  75.1766 284.9604 13.12441802209647
ONEWEB-0147             
1 47293U 20100AM  25113.84333990 -.00000370  00000+0 -10626-2 0  9997
2 47293  87.8851  74.0644 0001674  80.8199 279.3119 13.12444565209561
ONEWEB-0115             
1 48042U 21025A   25113.81804444 -.00000150  00000+0 -44543-3 0  9993
2 48042  87.8983  43.5573 0001971  77.5755 282.5595 13.13467535198545
ONEWEB-0152             
1 48043U 21025B   25113.75542351 -.00000302  00000+0 -86179-3 0  9993
2 48043  87.8987  43.5802 0002001  74.8186 285.3165 13.13468869198497
ONEWEB-0153             
1 48044U 21025C   25113.73340379  .00000036  00000+0  63065-4 0  9990
2 48044  87.8985  43.5812 0001889  82.6398 277.4946 13.13467596198486
ONEWEB-0154             
1 48045U 21025D   25113.73003671  .00000127  00000+0  31324-3 0  9995
2 48045  87.8986  43.5829 0001862  77.3020 282.8317 13.13469408198442
