<?xml version="1.0" encoding="UTF-8"?>
<ndm xmlns:xsi="http://www.w3.org/2001/XMLSchema-instance" xsi:noNamespaceSchemaLocation="https://sanaregistry.org/r/ndmxml_unqualified/ndmxml-2.0.0-master-2.0.xsd">
<omm id="CCSDS_OMM_VERS" version="2.0">
<header><CREATION_DATE/><ORIGINATOR/></header><body><segment><metadata><OBJECT_NAME>ONEWEB-0144</OBJECT_NAME><OBJECT_ID>2020-100AJ</OBJECT_ID><CENTER_NAME>EARTH</CENTER_NAME><REF_FRAME>TEME</REF_FRAME><TIME_SYSTEM>UTC</TIME_SYSTEM><MEAN_ELEMENT_THEORY>SGP4</MEAN_ELEMENT_THEORY></metadata><data><meanElements><EPOCH>2025-04-23T20:00:24.747264</EPOCH><MEAN_MOTION>13.12444498</MEAN_MOTION><ECCENTRICITY>.0001795</ECCENTRICITY><INCLINATION>87.8854</INCLINATION><RA_OF_ASC_NODE>74.0723</RA_OF_ASC_NODE><ARG_OF_PERICENTER>90.6584</ARG_OF_PERICENTER><MEAN_ANOMALY>269.4750</MEAN_ANOMALY></meanElements><tleParameters><EPHEMERIS_TYPE>0</EPHEMERIS_TYPE><CLASSIFICATION_TYPE>U</CLASSIFICATION_TYPE><NORAD_CAT_ID>47290</NORAD_CAT_ID><ELEMENT_SET_NO>999</ELEMENT_SET_NO><REV_AT_EPOCH>20956</REV_AT_EPOCH><BSTAR>-.11003E-2</BSTAR><MEAN_MOTION_DOT>-.383E-5</MEAN_MOTION_DOT><MEAN_MOTION_DDOT>0</MEAN_MOTION_DDOT></tleParameters></data></segment></body></omm>
<omm id="CCSDS_OMM_VERS" version="2.0">
<header><CREATION_DATE/><ORIGINATOR/></header><body><segment><metadata><OBJECT_NAME>ONEWEB-0146</OBJECT_NAME><OBJECT_ID>2020-100AL</OBJECT_ID><CENTER_NAME>EARTH</CENTER_NAME><REF_FRAME>TEME</REF_FRAME><TIME_SYSTEM>UTC</TIME_SYSTEM><MEAN_ELEMENT_THEORY>SGP4</MEAN_ELEMENT_THEORY></metadata><data><meanElements><EPOCH>2025-04-23T15:34:08.120640</EPOCH><MEAN_MOTION>13.12441802</MEAN_MOTION><ECCENTRICITY>.000218</ECCENTRICITY><INCLINATION>87.8851</INCLINATION><RA_OF_ASC_NODE>74.1216</RA_OF_ASC_NODE><ARG_OF_PERICENTER>75.1766</ARG_OF_PERICENTER><MEAN_ANOMALY>284.9604</MEAN_ANOMALY></meanElements><tleParameters><EPHEMERIS_TYPE>0</EPHEMERIS_TYPE><CLASSIFICATION_TYPE>U</CLASSIFICATION_TYPE><NORAD_CAT_ID>47292</NORAD_CAT_ID><ELEMENT_SET_NO>999</ELEMENT_SET_NO><REV_AT_EPOCH>20964</REV_AT_EPOCH><BSTAR>.12634E-2</BSTAR><MEAN_MOTION_DOT>.467E-5</MEAN_MOTION_DOT><MEAN_MOTION_DDOT>0</MEAN_MOTION_DDOT></tleParameters></data></segment></body></omm>
<omm id="CCSDS_OMM_VERS" version="2.0">
<header><CREATION_DATE/><ORIGINATOR/></header><body><segment><metadata><OBJECT_NAME>ONEWEB-0147</OBJECT_NAME><OBJECT_ID>2020-100AM</OBJECT_ID><CENTER_NAME>EARTH</CENTER_NAME><REF_FRAME>TEME</REF_FRAME><TIME_SYSTEM>UTC</TIME_SYSTEM><MEAN_ELEMENT_THEORY>SGP4</MEAN_ELEMENT_THEORY></metadata><data><meanElements><EPOCH>2025-04-23T20:14:24.567360</EPOCH><MEAN_MOTION>13.12444565</MEAN_MOTION><ECCENTRICITY>.0001674</ECCENTRICITY><INCLINATION>87.8851</INCLINATION><RA_OF_ASC_NODE>74.0644</RA_OF_ASC_NODE><ARG_OF_PERICENTER>80.8199</ARG_OF_PERICENTER><MEAN_ANOMALY>279.3119</MEAN_ANOMALY></meanElements><tleParameters><EPHEMERIS_TYPE>0</EPHEMERIS_TYPE><CLASSIFICATION_TYPE>U</CLASSIFICATION_TYPE><NORAD_CAT_ID>47293</NORAD_CAT_ID><ELEMENT_SET_NO>999</ELEMENT_SET_NO><REV_AT_EPOCH>20956</REV_AT_EPOCH><BSTAR>-.10626E-2</BSTAR><MEAN_MOTION_DOT>-.37E-5</MEAN_MOTION_DOT><MEAN_MOTION_DDOT>0</MEAN_MOTION_DDOT></tleParameters></data></segment></body></omm>
<omm id="CCSDS_OMM_VERS" version="2.0">
<header><CREATION_DATE/><ORIGINATOR/></header><body><segment><metadata><OBJECT_NAME>ONEWEB-0115</OBJECT_NAME><OBJECT_ID>2021-025A</OBJECT_ID><CENTER_NAME>EARTH</CENTER_NAME><REF_FRAME>TEME</REF_FRAME><TIME_SYSTEM>UTC</TIME_SYSTEM><MEAN_ELEMENT_THEORY>SGP4</MEAN_ELEMENT_THEORY></metadata><data><meanElements><EPOCH>2025-04-23T19:37:59.039616</EPOCH><MEAN_MOTION>13.13467535</MEAN_MOTION><ECCENTRICITY>.0001971</ECCENTRICITY><INCLINATION>87.8983</INCLINATION><RA_OF_ASC_NODE>43.5573</RA_OF_ASC_NODE><ARG_OF_PERICENTER>77.5755</ARG_OF_PERICENTER><MEAN_ANOMALY>282.5595</MEAN_ANOMALY></meanElements><tleParameters><EPHEMERIS_TYPE>0</EPHEMERIS_TYPE><CLASSIFICATION_TYPE>U</CLASSIFICATION_TYPE><NORAD_CAT_ID>48042</NORAD_CAT_ID><ELEMENT_SET_NO>999</ELEMENT_SET_NO><REV_AT_EPOCH>19855</REV_AT_EPOCH><BSTAR>-.44543E-3</BSTAR><MEAN_MOTION_DOT>-.15E-5</MEAN_MOTION_DOT><MEAN_MOTION_DDOT>0</MEAN_MOTION_DDOT></tleParameters></data></segment></body></omm>
<omm id="CCSDS_OMM_VERS" version="2.0">
<header><CREATION_DATE/><ORIGINATOR/></header><body><segment><metadata><OBJECT_NAME>ONEWEB-0152</OBJECT_NAME><OBJECT_ID>2021-025B</OBJECT_ID><CENTER_NAME>EARTH</CENTER_NAME><REF_FRAME>TEME</REF_FRAME><TIME_SYSTEM>UTC</TIME_SYSTEM><MEAN_ELEMENT_THEORY>SGP4</MEAN_ELEMENT_THEORY></metadata><data><meanElements><EPOCH>2025-04-23T18:07:48.591264</EPOCH><MEAN_MOTION>13.13468869</MEAN_MOTION><ECCENTRICITY>.0002001</ECCENTRICITY><INCLINATION>87.8987</INCLINATION><RA_OF_ASC_NODE>43.5802</RA_OF_ASC_NODE><ARG_OF_PERICENTER>74.8186</ARG_OF_PERICENTER><MEAN_ANOMALY>285.3165</MEAN_ANOMALY></meanElements><tleParameters><EPHEMERIS_TYPE>0</EPHEMERIS_TYPE><CLASSIFICATION_TYPE>U</CLASSIFICATION_TYPE><NORAD_CAT_ID>48043</NORAD_CAT_ID><ELEMENT_SET_NO>999</ELEMENT_SET_NO><REV_AT_EPOCH>19850</REV_AT_EPOCH><BSTAR>-.86179E-3</BSTAR><MEAN_MOTION_DOT>-.302E-5</MEAN_MOTION_DOT><MEAN_MOTION_DDOT>0</MEAN_MOTION_DDOT></tleParameters></data></segment></body></omm>
<omm id="CCSDS_OMM_VERS" version="2.0">
<header><CREATION_DATE/><ORIGINATOR/></header><body><segment><metadata><OBJECT_NAME>ONEWEB-0153</OBJECT_NAME><OBJECT_ID>2021-025C</OBJECT_ID><CENTER_NAME>EARTH</CENTER_NAME><REF_FRAME>TEME</REF_FRAME><TIME_SYSTEM>UTC</TIME_SYSTEM><MEAN_ELEMENT_THEORY>SGP4</MEAN_ELEMENT_THEORY></metadata><data><meanElements><EPOCH>2025-04-23T17:36:06.087456</EPOCH><MEAN_MOTION>13.13467596</MEAN_MOTION><ECCENTRICITY>.0001889</ECCENTRICITY><INCLINATION>87.8985</INCLINATION><RA_OF_ASC_NODE>43.5812</RA_OF_ASC_NODE><ARG_OF_PERICENTER>82.6398</ARG_OF_PERICENTER><MEAN_ANOMALY>277.4946</MEAN_ANOMALY></meanElements><tleParameters><EPHEMERIS_TYPE>0</EPHEMERIS_TYPE><CLASSIFICATION_TYPE>U</CLASSIFICATION_TYPE><NORAD_CAT_ID>48044</NORAD_CAT_ID><ELEMENT_SET_NO>999</ELEMENT_SET_NO><REV_AT_EPOCH>19849</REV_AT_EPOCH><BSTAR>.63065E-4</BSTAR><MEAN_MOTION_DOT>.36E-6</MEAN_MOTION_DOT><MEAN_MOTION_DDOT>0</MEAN_MOTION_DDOT></tleParameters></data></segment></body></omm>
<omm id="CCSDS_OMM_VERS" version="2.0">
<header><CREATION_DATE/><ORIGINATOR/></header><body><segment><metadata><OBJECT_NAME>ONEWEB-0154</OBJECT_NAME><OBJECT_ID>2021-025D</OBJECT_ID><CENTER_NAME>EARTH</CENTER_NAME><REF_FRAME>TEME</REF_FRAME><TIME_SYSTEM>UTC</TIME_SYSTEM><MEAN_ELEMENT_THEORY>SGP4</MEAN_ELEMENT_THEORY></metadata><data><meanElements><EPOCH>2025-04-23T17:31:15.171744</EPOCH><MEAN_MOTION>13.13469408</MEAN_MOTION><ECCENTRICITY>.0001862</ECCENTRICITY><INCLINATION>87.8986</INCLINATION><RA_OF_ASC_NODE>43.5829</RA_OF_ASC_NODE><ARG_OF_PERICENTER>77.3020</ARG_OF_PERICENTER><MEAN_ANOMALY>282.8317</MEAN_ANOMALY></meanElements><tleParameters><EPHEMERIS_TYPE>0</EPHEMERIS_TYPE><CLASSIFICATION_TYPE>U</CLASSIFICATION_TYPE><NORAD_CAT_ID>48045</NORAD_CAT_ID><ELEMENT_SET_NO>999</ELEMENT_SET_NO><REV_AT_EPOCH>19844</REV_AT_EPOCH><BSTAR>.31324E-3</BSTAR><MEAN_MOTION_DOT>.127E-5</MEAN_MOTION_DOT><MEAN_MOTION_DDOT>0</MEAN_MOTION_DDOT></tleParameters></data></segment></body></omm>

</ndm>
